CCSDS_OMM_VERS = 2.0
CREATION_DATE  = 
ORIGINATOR     = 

OBJECT_NAME    = STARLINK-36209
OBJECT_ID      = 2025-293V
CENTER_NAME    = EARTH
REF_FRAME      = TEME
TIME_SYSTEM    = UTC
MEAN_ELEMENT_THEORY = SGP/SGP4

EPOCH          = 2026-01-02T06:00:02.999808
MEAN_MOTION    = 15.52573040
ECCENTRICITY   = .00035293
INCLINATION    = 69.9997
RA_OF_ASC_NODE = 265.2729
ARG_OF_PERICENTER = 275.5209
MEAN_ANOMALY   = 78.4062

EPHEMERIS_TYPE = 0
CLASSIFICATION_TYPE = U
NORAD_CAT_ID   = 67022
ELEMENT_SET_NO = 999
REV_AT_EPOCH   = 351
BSTAR          = -.20664993E-2
MEAN_MOTION_DOT = -.125565E-2
MEAN_MOTION_DDOT = 0

CCSDS_OMM_VERS = 2.0
CREATION_DATE  = 
ORIGINATOR     = 

OBJECT_NAME    = STARLINK-36191
OBJECT_ID      = 2025-293W
CENTER_NAME    = EARTH
REF_FRAME      = TEME
TIME_SYSTEM    = UTC
MEAN_ELEMENT_THEORY = SGP/SGP4

EPOCH          = 2026-01-02T06:00:02.999808
MEAN_MOTION    = 15.52580135
ECCENTRICITY   = .00033277
INCLINATION    = 69.9998
RA_OF_ASC_NODE = 265.2707
ARG_OF_PERICENTER = 271.9045
MEAN_ANOMALY   = 83.9353

EPHEMERIS_TYPE = 0
CLASSIFICATION_TYPE = U
NORAD_CAT_ID   = 67023
ELEMENT_SET_NO = 999
REV_AT_EPOCH   = 339
BSTAR          = -.2140539E-2
MEAN_MOTION_DOT = -.130014E-2
MEAN_MOTION_DDOT = 0

CCSDS_OMM_VERS = 2.0
CREATION_DATE  = 
ORIGINATOR     = 

OBJECT_NAME    = STARLINK-36192
OBJECT_ID      = 2025-293X
CENTER_NAME    = EARTH
REF_FRAME      = TEME
TIME_SYSTEM    = UTC
MEAN_ELEMENT_THEORY = SGP/SGP4

EPOCH          = 2026-01-02T06:00:02.999808
MEAN_MOTION    = 15.52571195
ECCENTRICITY   = .00035645
INCLINATION    = 69.9997
RA_OF_ASC_NODE = 265.2680
ARG_OF_PERICENTER = 271.0278
MEAN_ANOMALY   = 86.7372

EPHEMERIS_TYPE = 0
CLASSIFICATION_TYPE = U
NORAD_CAT_ID   = 67024
ELEMENT_SET_NO = 999
REV_AT_EPOCH   = 351
BSTAR          = -.19935127E-2
MEAN_MOTION_DOT = -.121195E-2
MEAN_MOTION_DDOT = 0

CCSDS_OMM_VERS = 2.0
CREATION_DATE  = 
ORIGINATOR     = 

OBJECT_NAME    = STARLINK-36178
OBJECT_ID      = 2025-293Y
CENTER_NAME    = EARTH
REF_FRAME      = TEME
TIME_SYSTEM    = UTC
MEAN_ELEMENT_THEORY = SGP/SGP4

EPOCH          = 2026-01-02T06:00:02.999808
MEAN_MOTION    = 15.52571561
ECCENTRICITY   = .00031209
INCLINATION    = 69.9998
RA_OF_ASC_NODE = 265.2661
ARG_OF_PERICENTER = 273.6714
MEAN_ANOMALY   = 86.0064

EPHEMERIS_TYPE = 0
CLASSIFICATION_TYPE = U
NORAD_CAT_ID   = 67025
ELEMENT_SET_NO = 999
REV_AT_EPOCH   = 351
BSTAR          = -.20432892E-2
MEAN_MOTION_DOT = -.124162E-2
MEAN_MOTION_DDOT = 0

CCSDS_OMM_VERS = 2.0
CREATION_DATE  = 
ORIGINATOR     = 

OBJECT_NAME    = STARLINK-36176
OBJECT_ID      = 2025-293Z
CENTER_NAME    = EARTH
REF_FRAME      = TEME
TIME_SYSTEM    = UTC
MEAN_ELEMENT_THEORY = SGP/SGP4

EPOCH          = 2026-01-02T06:00:02.999808
MEAN_MOTION    = 15.52569475
ECCENTRICITY   = .00036336
INCLINATION    = 69.9997
RA_OF_ASC_NODE = 265.2618
ARG_OF_PERICENTER = 275.1161
MEAN_ANOMALY   = 88.3915

EPHEMERIS_TYPE = 0
CLASSIFICATION_TYPE = U
NORAD_CAT_ID   = 67026
ELEMENT_SET_NO = 999
REV_AT_EPOCH   = 351
BSTAR          = -.18659958E-2
MEAN_MOTION_DOT = -.113556E-2
MEAN_MOTION_DDOT = 0

CCSDS_OMM_VERS = 2.0
CREATION_DATE  = 
ORIGINATOR     = 

OBJECT_NAME    = STARLINK-36171
OBJECT_ID      = 2025-293AA
CENTER_NAME    = EARTH
REF_FRAME      = TEME
TIME_SYSTEM    = UTC
MEAN_ELEMENT_THEORY = SGP/SGP4

EPOCH          = 2026-01-02T06:00:02.999808
MEAN_MOTION    = 15.52582793
ECCENTRICITY   = .00034364
INCLINATION    = 69.9998
RA_OF_ASC_NODE = 265.2636
ARG_OF_PERICENTER = 270.5931
MEAN_ANOMALY   = 90.9969

EPHEMERIS_TYPE = 0
CLASSIFICATION_TYPE = U
NORAD_CAT_ID   = 67027
ELEMENT_SET_NO = 999
REV_AT_EPOCH   = 351
BSTAR          = -.22536048E-2
MEAN_MOTION_DOT = -.136773E-2
MEAN_MOTION_DDOT = 0

CCSDS_OMM_VERS = 2.0
CREATION_DATE  = 
ORIGINATOR     = 

OBJECT_NAME    = STARLINK-36132
OBJECT_ID      = 2025-293AB
CENTER_NAME    = EARTH
REF_FRAME      = TEME
TIME_SYSTEM    = UTC
MEAN_ELEMENT_THEORY = SGP/SGP4

EPOCH          = 2026-01-02T06:00:02.999808
MEAN_MOTION    = 15.52567696
ECCENTRICITY   = .00033934
INCLINATION    = 69.9996
RA_OF_ASC_NODE = 265.2565
ARG_OF_PERICENTER = 273.2901
MEAN_ANOMALY   = 94.0537

EPHEMERIS_TYPE = 0
CLASSIFICATION_TYPE = U
NORAD_CAT_ID   = 67028
ELEMENT_SET_NO = 999
REV_AT_EPOCH   = 351
BSTAR          = -.18964365E-2
MEAN_MOTION_DOT = -.115367E-2
MEAN_MOTION_DDOT = 0

CCSDS_OMM_VERS = 2.0
CREATION_DATE  = 
ORIGINATOR     = 

OBJECT_NAME    = STARLINK-36190
OBJECT_ID      = 2025-293AC
CENTER_NAME    = EARTH
REF_FRAME      = TEME
TIME_SYSTEM    = UTC
MEAN_ELEMENT_THEORY = SGP/SGP4

EPOCH          = 2026-01-02T06:00:02.999808
MEAN_MOTION    = 15.52554266
ECCENTRICITY   = .00031972
INCLINATION    = 69.9998
RA_OF_ASC_NODE = 265.2593
ARG_OF_PERICENTER = 268.5212
MEAN_ANOMALY   = 96.9038

EPHEMERIS_TYPE = 0
CLASSIFICATION_TYPE = U
NORAD_CAT_ID   = 67029
ELEMENT_SET_NO = 999
REV_AT_EPOCH   = 351
BSTAR          = -.1388812E-2
MEAN_MOTION_DOT = -.8481E-3
MEAN_MOTION_DDOT = 0

CCSDS_OMM_VERS = 2.0
CREATION_DATE  = 
ORIGINATOR     = 

OBJECT_NAME    = STARLINK-36138
OBJECT_ID      = 2025-294A
CENTER_NAME    = EARTH
REF_FRAME      = TEME
TIME_SYSTEM    = UTC
MEAN_ELEMENT_THEORY = SGP/SGP4

EPOCH          = 2026-01-02T06:50:01.123008
MEAN_MOTION    = 15.50542611
ECCENTRICITY   = .00007068
INCLINATION    = 42.9998
RA_OF_ASC_NODE = 58.2783
ARG_OF_PERICENTER = 265.6568
MEAN_ANOMALY   = 94.4212

EPHEMERIS_TYPE = 0
CLASSIFICATION_TYPE = U
NORAD_CAT_ID   = 67030
ELEMENT_SET_NO = 999
REV_AT_EPOCH   = 458
BSTAR          = .67178626E-3
MEAN_MOTION_DOT = .39215E-3
MEAN_MOTION_DDOT = 0

CCSDS_OMM_VERS = 2.0
CREATION_DATE  = 
ORIGINATOR     = 

OBJECT_NAME    = STARLINK-36150
OBJECT_ID      = 2025-294B
CENTER_NAME    = EARTH
REF_FRAME      = TEME
TIME_SYSTEM    = UTC
MEAN_ELEMENT_THEORY = SGP/SGP4

EPOCH          = 2026-01-02T06:00:02.999808
MEAN_MOTION    = 15.44036385
ECCENTRICITY   = .00011134
INCLINATION    = 43.0005
RA_OF_ASC_NODE = 58.5197
ARG_OF_PERICENTER = 285.4562
MEAN_ANOMALY   = 225.5581

EPHEMERIS_TYPE = 0
CLASSIFICATION_TYPE = U
NORAD_CAT_ID   = 67031
ELEMENT_SET_NO = 999
REV_AT_EPOCH   = 358
BSTAR          = -.49171552E-1
MEAN_MOTION_DOT = -.2042706E-1
MEAN_MOTION_DDOT = 0

CCSDS_OMM_VERS = 2.0
CREATION_DATE  = 
ORIGINATOR     = 

OBJECT_NAME    = STARLINK-36131
OBJECT_ID      = 2025-294C
CENTER_NAME    = EARTH
REF_FRAME      = TEME
TIME_SYSTEM    = UTC
MEAN_ELEMENT_THEORY = SGP/SGP4

EPOCH          = 2026-01-02T06:00:02.999808
MEAN_MOTION    = 15.40742228
ECCENTRICITY   = .00013525
INCLINATION    = 43.0003
RA_OF_ASC_NODE = 58.5980
ARG_OF_PERICENTER = 292.3940
MEAN_ANOMALY   = 185.7010

EPHEMERIS_TYPE = 0
CLASSIFICATION_TYPE = U
NORAD_CAT_ID   = 67032
ELEMENT_SET_NO = 999
REV_AT_EPOCH   = 339
BSTAR          = -.17770822E-2
MEAN_MOTION_DOT = -.73924E-3
MEAN_MOTION_DDOT = 0

CCSDS_OMM_VERS = 2.0
CREATION_DATE  = 
ORIGINATOR     = 

OBJECT_NAME    = STARLINK-36137
OBJECT_ID      = 2025-294D
CENTER_NAME    = EARTH
REF_FRAME      = TEME
TIME_SYSTEM    = UTC
MEAN_ELEMENT_THEORY = SGP/SGP4

EPOCH          = 2026-01-02T06:00:02.999808
MEAN_MOTION    = 15.40638088
ECCENTRICITY   = .00013787
INCLINATION    = 43.0004
RA_OF_ASC_NODE = 58.5670
ARG_OF_PERICENTER = 270.1970
MEAN_ANOMALY   = 220.4297

EPHEMERIS_TYPE = 0
CLASSIFICATION_TYPE = U
NORAD_CAT_ID   = 67033
ELEMENT_SET_NO = 999
REV_AT_EPOCH   = 339
BSTAR          = .11281617E-2
MEAN_MOTION_DOT = .47016E-3
MEAN_MOTION_DDOT = 0

