STARLINK-36209          
1 67022U 25293V   26002.25003472 -.00125565  00000+0 -20665-2 0  9997
2 67022  69.9997 265.2729 0003529 275.5209  78.4062 15.52573040  3518
STARLINK-36191          
1 67023U 25293W   26002.25003472 -.00130014  00000+0 -21405-2 0  9996
2 67023  69.9998 265.2707 0003327 271.9045  83.9353 15.52580135  3393
STARLINK-36192          
1 67024U 25293X   26002.25003472 -.00121195  00000+0 -19935-2 0  9992
2 67024  69.9997 265.2680 0003564 271.0278  86.7372 15.52571195  3517
STARLINK-36178          
1 67025U 25293Y   26002.25003472 -.00124162  00000+0 -20433-2 0  9995
2 67025  69.9998 265.2661 0003120 273.6714  86.0064 15.52571561  3517
STARLINK-36176          
1 67026U 25293Z   26002.25003472 -.00113556  00000+0 -18660-2 0  9990
2 67026  69.9997 265.2618 0003633 275.1161  88.3915 15.52569475  3512
STARLINK-36171          
1 67027U 25293AA  26002.25003472 -.00136773  00000+0 -22536-2 0  9994
2 67027  69.9998 265.2636 0003436 270.5931  90.9969 15.52582793  3515
STARLINK-36132          
1 67028U 25293AB  26002.25003472 -.00115367  00000+0 -18964-2 0  9991
2 67028  69.9996 265.2565 0003393 273.2901  94.0537 15.52567696  3515
STARLINK-36190          
1 67029U 25293AC  26002.25003472 -.00084810  00000+0 -13888-2 0  9990
2 67029  69.9998 265.2593 0003197 268.5212  96.9038 15.52554266  3519
STARLINK-36138          
1 67030U 25294A   26002.28473522  .00039215  00000+0  67179-3 0  9993
2 67030  42.9998  58.2783 0000706 265.6568  94.4212 15.50542611  4582
STARLINK-36150          
1 67031U 25294B   26002.25003472 -.02042706  00000+0 -49172-1 0  9998
2 67031  43.0005  58.5197 0001113 285.4562 225.5581 15.44036385  3587
STARLINK-36131          
1 67032U 25294C   26002.25003472 -.00073924  00000+0 -17771-2 0  9994
2 67032  43.0003  58.5980 0001352 292.3940 185.7010 15.40742228  3397
STARLINK-36137          
1 67033U 25294D   26002.25003472  .00047016  00000+0  11282-2 0  9997
2 67033  43.0004  58.5670 0001378 270.1970 220.4297 15.40638088  3392
